{
    "links": {
        "self": "http://www.neowsapp.com/rest/v1/neo/3878596?api_key=iIulBulltgU6a56xZRHN4H3l9WmuAYTsLGpBGhQ2"
    },
    "id": "3878596",
    "neo_reference_id": "3878596",
    "name": "(2019 TP3)",
    "designation": "2019 TP3",
    "nasa_jpl_url": "http://ssd.jpl.nasa.gov/sbdb.cgi?sstr=3878596",
    "absolute_magnitude_h": 26.4,
    "estimated_diameter": {
        "kilometers": {
            "estimated_diameter_min": 0.0139493823,
            "estimated_diameter_max": 0.0311917671
        },
        "meters": {
            "estimated_diameter_min": 13.9493822934,
            "estimated_diameter_max": 31.1917670523
        },
        "miles": {
            "estimated_diameter_min": 0.0086677416,
            "estimated_diameter_max": 0.0193816595
        },
        "feet": {
            "estimated_diameter_min": 45.7656914036,
            "estimated_diameter_max": 102.3351970157
        }
    },
    "is_potentially_hazardous_asteroid": false,
    "close_approach_data": [
        {
            "close_approach_date": "2017-10-27",
            "close_approach_date_full": "2017-Oct-27 00:42",
            "epoch_date_close_approach": 1509064920000,
            "relative_velocity": {
                "kilometers_per_second": "16.5024479098",
                "kilometers_per_hour": "59408.8124752274",
                "miles_per_hour": "36914.325729399"
            },
            "miss_distance": {
                "astronomical": "0.3046992512",
                "lunar": "118.5280087168",
                "kilometers": "45582358.970114944",
                "miles": "28323564.4828924672"
            },
            "orbiting_body": "Earth"
        },
        {
            "close_approach_date": "2019-10-01",
            "close_approach_date_full": "2019-Oct-01 15:03",
            "epoch_date_close_approach": 1569942180000,
            "relative_velocity": {
                "kilometers_per_second": "8.9336411953",
                "kilometers_per_hour": "32161.1083030302",
                "miles_per_hour": "19983.6619897356"
            },
            "miss_distance": {
                "astronomical": "0.012262895",
                "lunar": "4.770266155",
                "kilometers": "1834502.97203365",
                "miles": "1139907.28861837"
            },
            "orbiting_body": "Earth"
        }
    ],
    "orbital_data": {
        "orbit_id": "1",
        "orbit_determination_date": "2019-10-08 01:12:08",
        "first_observation_date": "2019-10-07",
        "last_observation_date": "2019-10-08",
        "data_arc_in_days": 1,
        "observations_used": 16,
        "orbit_uncertainty": "8",
        "minimum_orbit_intersection": ".0113829",
        "jupiter_tisserand_invariant": "4.334",
        "epoch_osculation": "2458764.5",
        "eccentricity": ".3693667139193392",
        "semi_major_axis": "1.559486589074619",
        "inclination": "11.35820772219245",
        "ascending_node_longitude": "10.39012778260081",
        "orbital_period": "711.3296202792105",
        "perihelion_distance": ".983464152266848",
        "perihelion_argument": "332.4269879155744",
        "aphelion_distance": "2.135509025882389",
        "perihelion_time": "2458736.382929138843",
        "mean_anomaly": "14.22989458254723",
        "mean_motion": ".5060944880359306",
        "equinox": "J2000",
        "orbit_class": {
            "orbit_class_type": "APO",
            "orbit_class_description": "Near-Earth asteroid orbits which cross the Earth’s orbit similar to that of 1862 Apollo",
            "orbit_class_range": "a (semi-major axis) > 1.0 AU; q (perihelion) < 1.017 AU"
        }
    },
    "is_sentry_object": false
}